[
    {
        "Altitude(m)": 604983.0528795185,
        "Argument of Periapsis(deg)": 0.0,
        "Eccentricity": 0.0,
        "Inclination(deg)": 60.0,
        "Latitude(deg)": -0.09257301278966108,
        "Longitude(deg)": 45.08391651430738,
        "Mean Anomaly(deg)": -180.00000000000003,
        "RAAN(deg)": 325.0,
        "Satellite Name": "Test1 1441",
        "Satellite Number": 1441,
        "Semi-Major Axis(m)": 6980739.136638005,
        "Time(s)": 0
    },
    {
        "Altitude(m)": 605055.3318137072,
        "Argument of Periapsis(deg)": 0.00010418945913296404,
        "Eccentricity": 0.0,
        "Inclination(deg)": 60.0,
        "Latitude(deg)": -0.6329825556255754,
        "Longitude(deg)": 45.35204208334593,
        "Mean Anomaly(deg)": -179.37989385453818,
        "RAAN(deg)": 324.99957995086027,
        "Satellite Name": "Test1 1441",
        "Satellite Number": 1441,
        "Semi-Major Axis(m)": 6980739.136638005,
        "Time(s)": 10
    }
]